[Satellite]
VERSION=1.1
NAME=IRIDIUM 176
NICKNAME=IRIDIUM 176
TLE1=1 43923U 19002B   20157.80137126  .00000140  00000-0  18343-4 0  9994
TLE2=2 43923  86.6136 193.9827 0002542  95.2967 264.8540 14.72258039 75218
STATUS=0
